STARLINK-35411          
1 66560U 25268D   26149.66729319  .00035664  00000+0  12978-2 0  9993
2 66560  43.0066 249.7961 0005510 244.8153 115.2128 15.27607149 30342
STARLINK-35305          
1 66561U 25268E   26149.59421276  .00018139  00000+0  66691-3 0  9997
2 66561  42.9999 250.1069 0001864 243.3740 116.6921 15.27587370 30333
STARLINK-35579          
1 66562U 25268F   26149.66345142  .00025030  00000+0  91512-3 0  9991
2 66562  43.0036 249.7706 0002162 259.4818 100.5790 15.27611228 30343
STARLINK-35437          
1 66563U 25268G   26149.32881726  .00020221  00000+0  74199-3 0  9997
2 66563  42.9958 251.5513 0001324 176.3396 183.7466 15.27594419 30298
STARLINK-35358          
1 66564U 25268H   26149.65189117  .00022441  00000+0  82211-3 0  9999
2 66564  42.9993 249.6807 0001011 263.0967  96.9769 15.27596014 30343
STARLINK-35893          
1 66565U 25268J   26150.00002315 -.00013717  00000+0 -48994-3 0  9993
2 66565  43.0009 247.6600 0001612 269.5415 228.4625 15.27573685  5769
STARLINK-35871          
1 66566U 25268K   26149.64546426  .00020786  00000+0  76227-3 0  9990
2 66566  42.9999 249.6290 0001389 279.7218  80.3477 15.27599992 30349
STARLINK-35825          
1 66567U 25268L   26149.64161109  .00033290  00000+0  12124-2 0  9991
2 66567  42.9995 249.5978 0001479 291.3253  68.7440 15.27617953 30345
STARLINK-35803          
1 66568U 25268M   26149.63647616  .00033515  00000+0  12194-2 0  9990
2 66568  42.9998 249.5591 0001337 277.3266  82.7434 15.27646404 30343
STARLINK-35835          
1 66569U 25268N   26149.69928454  .00023790  00000+0  87058-3 0  9995
2 66569  42.9977 249.1713 0002437 261.9887  98.0688 15.27604118 30351
STARLINK-35834          
1 66570U 25268P   26149.69686943  .00019329  00000+0  70960-3 0  9998
2 66570  43.0004 250.0230 0001502 285.6778  74.3908 15.27602706 30347
STARLINK-35836          
1 66571U 25268Q   26149.30069722  .00031361  00000+0  11437-2 0  9990
2 66571  42.9994 252.2060 0003530 283.8533  76.1926 15.27593376 30286
STARLINK-35870          
1 66572U 25268R   26149.29427381  .00035303  00000+0  12851-2 0  9999
2 66572  43.0002 252.1636 0002073 280.2352  79.8266 15.27609819 30285
STARLINK-35650          
1 66573U 25268S   26149.61734304  .00020737  00000+0  76065-3 0  9995
2 66573  42.9994 250.2853 0001849 266.0063  94.0577 15.27593089 30336
STARLINK-35812          
1 66574U 25268T   26149.61349010  .00036240  00000+0  13178-2 0  9993
2 66574  43.0025 250.2586 0002044 299.8304  60.2344 15.27634517 30336
STARLINK-35810          
1 66575U 25268U   26149.67501553  .00021403  00000+0  78425-3 0  9994
2 66575  43.0056 249.8606 0002430 278.8882  81.1695 15.27612239 30344
STARLINK-35814          
1 66576U 25268V   26149.60577296  .00018745  00000+0  68797-3 0  9991
2 66576  43.0055 250.1939 0003254 266.7429  93.3050 15.27625635 30339
STARLINK-35815          
1 66577U 25268W   26149.66474028  .00023418  00000+0  85801-3 0  9995
2 66577  43.0052 249.7736 0002005 258.1032 101.9595 15.27572736 30348
STARLINK-35743          
1 66578U 25268X   26149.66088636  .00023280  00000+0  85230-3 0  9995
2 66578  43.0001 249.7464 0000909 241.5859 118.4901 15.27600725 30349
STARLINK-35868          
1 66579U 25268Y   26149.59163771  .00022216  00000+0  81392-3 0  9995
2 66579  43.0000 250.0872 0002359 245.4210 114.6396 15.27597696 30339
STARLINK-35872          
1 66580U 25268Z   26149.65317514  .00023478  00000+0  85920-3 0  9992
2 66580  43.0021 249.6860 0001445 283.4897  76.5794 15.27609681 30340
STARLINK-35744          
1 66581U 25268AA  26149.64931972  .00021696  00000+0  79518-3 0  9998
2 66581  43.0005 249.6548 0001257 271.6922  88.3785 15.27597926 30344
STARLINK-35746          
1 66582U 25268AB  26149.31597406 -.00001721  00000+0 -53009-4 0  9990
2 66582  42.9982 251.4516 0000905 301.9733  58.1031 15.27592598 30292
STARLINK-35941          
1 66583U 25268AC  26149.70442342  .00028031  00000+0  10234-2 0  9994
2 66583  43.0005 249.2064 0002719 266.5326  93.5214 15.27605006 30355
STARLINK-35939          
1 66584U 25268AD  26149.63518696  .00020189  00000+0  74063-3 0  9990
2 66584  43.0001 249.5432 0002301 285.5179  74.5418 15.27602357 30348
STARLINK-35963          
1 66585U 25268AE  26149.69043587  .00030702  00000+0  11191-2 0  9993
2 66585  42.9983 249.9721 0002751 250.5007 109.5548 15.27619753 30343
STARLINK-36076          
1 66588U 25270A   26149.79840937  .00025054  00000+0  91564-3 0  9991
2 66588  43.0021 317.8483 0001143 260.6690  99.4033 15.27624217 30117
STARLINK-35447          
1 66589U 25270B   26149.81895793  .00023101  00000+0  84579-3 0  9994
2 66589  43.0012 318.0030 0001730 255.0365 105.0296 15.27602502 30228
STARLINK-35429          
1 66590U 25270C   26149.84979637  .00031411  00000+0  11456-2 0  9995
2 66590  43.0040 318.2297 0001973 247.8337 112.2305 15.27593252 30227
STARLINK-36058          
1 66591U 25270D   26149.88950466  .00028025  00000+0  10244-2 0  9990
2 66591  43.0021 317.6726 0002685 293.5761  66.4808 15.27567032 30121
