OBJECT_NAME,OBJECT_ID,EPOCH,MEAN_MOTION,ECCENTRICITY,INCLINATION,RA_OF_ASC_NODE,ARG_OF_PERICENTER,MEAN_ANOMALY,EPHEMERIS_TYPE,CLASSIFICATION_TYPE,NORAD_CAT_ID,ELEMENT_SET_NO,REV_AT_EPOCH,BSTAR,MEAN_MOTION_DOT,MEAN_MOTION_DDOT
STARLINK-35411,2025-268D,2026-05-29T16:00:54.131616,15.27607149,.00055108,43.0066,249.7961,244.8153,115.2128,0,U,66560,999,3034,.12977539E-2,.35664E-3,0
STARLINK-35305,2025-268E,2026-05-29T14:15:39.982464,15.27587370,.0001864,42.9999,250.1069,243.3740,116.6921,0,U,66561,999,3033,.66690926E-3,.18139E-3,0
STARLINK-35579,2025-268F,2026-05-29T15:55:22.202688,15.27611228,.00021627,43.0036,249.7706,259.4818,100.5790,0,U,66562,999,3034,.91511999E-3,.2503E-3,0
STARLINK-35437,2025-268G,2026-05-29T07:53:29.811264,15.27594419,.00013248,42.9958,251.5513,176.3396,183.7466,0,U,66563,999,3029,.74198522E-3,.20221E-3,0
STARLINK-35358,2025-268H,2026-05-29T15:38:43.397088,15.27596014,.00010117,42.9993,249.6807,263.0967,96.9769,0,U,66564,999,3034,.82211473E-3,.22441E-3,0
STARLINK-35893,2025-268J,2026-05-30T00:00:02.000160,15.27573685,.0001612,43.0009,247.6600,269.5415,228.4625,0,U,66565,999,576,-.48994E-3,-.13717E-3,0
STARLINK-35871,2025-268K,2026-05-29T15:29:28.112064,15.27599992,.00013897,42.9999,249.6290,279.7218,80.3477,0,U,66566,999,3034,.76227279E-3,.20786E-3,0
STARLINK-35825,2025-268L,2026-05-29T15:23:55.198176,15.27617953,.00014795,42.9995,249.5978,291.3253,68.7440,0,U,66567,999,3034,.12124055E-2,.3329E-3,0
STARLINK-35803,2025-268M,2026-05-29T15:16:31.540224,15.27646404,.00013375,42.9998,249.5591,277.3266,82.7434,0,U,66568,999,3034,.12194475E-2,.33515E-3,0
STARLINK-35835,2025-268N,2026-05-29T16:46:58.184256,15.27604118,.00024379,42.9977,249.1713,261.9887,98.0688,0,U,66569,999,3035,.8705759E-3,.2379E-3,0
STARLINK-35834,2025-268P,2026-05-29T16:43:29.518752,15.27602706,.00015025,43.0004,250.0230,285.6778,74.3908,0,U,66570,999,3034,.70959536E-3,.19329E-3,0
STARLINK-35836,2025-268Q,2026-05-29T07:13:00.239808,15.27593376,.00035302,42.9994,252.2060,283.8533,76.1926,0,U,66571,999,3028,.11437068E-2,.31361E-3,0
STARLINK-35870,2025-268R,2026-05-29T07:03:45.257184,15.27609819,.00020738,43.0002,252.1636,280.2352,79.8266,0,U,66572,999,3028,.12850873E-2,.35303E-3,0
STARLINK-35650,2025-268S,2026-05-29T14:48:58.438656,15.27593089,.00018494,42.9994,250.2853,266.0063,94.0577,0,U,66573,999,3033,.76065481E-3,.20737E-3,0
STARLINK-35812,2025-268T,2026-05-29T14:43:25.544640,15.27634517,.00020449,43.0025,250.2586,299.8304,60.2344,0,U,66574,999,3033,.13178009E-2,.3624E-3,0
STARLINK-35810,2025-268U,2026-05-29T16:12:01.341792,15.27612239,.00024301,43.0056,249.8606,278.8882,81.1695,0,U,66575,999,3034,.7842469E-3,.21403E-3,0
STARLINK-35814,2025-268V,2026-05-29T14:32:18.783744,15.27625635,.00032547,43.0055,250.1939,266.7429,93.3050,0,U,66576,999,3033,.68797185E-3,.18745E-3,0
STARLINK-35815,2025-268W,2026-05-29T15:57:13.560192,15.27572736,.00020056,43.0052,249.7736,258.1032,101.9595,0,U,66577,999,3034,.85800987E-3,.23418E-3,0
STARLINK-35743,2025-268X,2026-05-29T15:51:40.581504,15.27600725,.00009095,43.0001,249.7464,241.5859,118.4901,0,U,66578,999,3034,.85230318E-3,.2328E-3,0
STARLINK-35868,2025-268Y,2026-05-29T14:11:57.498144,15.27597696,.00023593,43.0000,250.0872,245.4210,114.6396,0,U,66579,999,3033,.81392378E-3,.22216E-3,0
STARLINK-35872,2025-268Z,2026-05-29T15:40:34.332096,15.27609681,.00014457,43.0021,249.6860,283.4897,76.5794,0,U,66580,999,3034,.85919631E-3,.23478E-3,0
STARLINK-35744,2025-268AA,2026-05-29T15:35:01.223808,15.27597926,.00012572,43.0005,249.6548,271.6922,88.3785,0,U,66581,999,3034,.7951756E-3,.21696E-3,0
STARLINK-35746,2025-268AB,2026-05-29T07:35:00.158784,15.27592598,.00009052,42.9982,251.4516,301.9733,58.1031,0,U,66582,999,3029,-.53009348E-4,-.1721E-4,0
STARLINK-35941,2025-268AC,2026-05-29T16:54:22.183488,15.27605006,.00027199,43.0005,249.2064,266.5326,93.5214,0,U,66583,999,3035,.10234399E-2,.28031E-3,0
STARLINK-35939,2025-268AD,2026-05-29T15:14:40.153344,15.27602357,.00023014,43.0001,249.5432,285.5179,74.5418,0,U,66584,999,3034,.74062557E-3,.20189E-3,0
STARLINK-35963,2025-268AE,2026-05-29T16:34:13.659168,15.27619753,.00027513,42.9983,249.9721,250.5007,109.5548,0,U,66585,999,3034,.11191472E-2,.30702E-3,0
STARLINK-36076,2025-270A,2026-05-29T19:09:42.569568,15.27624217,.0001143,43.0021,317.8483,260.6690,99.4033,0,U,66588,999,3011,.91564222E-3,.25054E-3,0
STARLINK-35447,2025-270B,2026-05-29T19:39:17.965152,15.27602502,.00017305,43.0012,318.0030,255.0365,105.0296,0,U,66589,999,3022,.84578991E-3,.23101E-3,0
STARLINK-35429,2025-270C,2026-05-29T20:23:42.406368,15.27593252,.00019737,43.0040,318.2297,247.8337,112.2305,0,U,66590,999,3022,.11456257E-2,.31411E-3,0
STARLINK-36058,2025-270D,2026-05-29T21:20:53.202624,15.27567032,.00026851,43.0021,317.6726,293.5761,66.4808,0,U,66591,999,3012,.10244231E-2,.28025E-3,0
